CTC1_L_00122001-01
1 10000U 24534LU  26075.70031250  .00000000  00000+0  00000-0 0  9996
2 10000  55.0000   0.0000 0000000   0.0000   0.0000 14.24551792    14
CTC1_L_00122001-02
1 10001U 26269HS  26075.70031250  .00000000  00000+0  00000-0 0  9994
2 10001  55.0000   0.0000 0000000   0.0000  90.0000 14.24551792    14
CTC1_L_00122001-03
1 10002U 22904FC  26075.70031250  .00000000  00000+0  00000-0 0  9997
2 10002  55.0000   0.0000 0000000   0.0000 180.0000 14.24551792    15
CTC1_L_00122001-04
1 10003U 22137GS  26075.70031250  .00000000  00000+0  00000-0 0  9996
2 10003  55.0000   0.0000 0000000   0.0000 270.0000 14.24551792    16
CTC1_L_00122002-01
1 10004U 25236SO  26075.70031250  .00000000  00000+0  00000-0 0  9990
2 10004  55.0000  12.0000 0000000   0.0000  12.0000 14.24551792    14
CTC1_L_00122002-02
1 10005U 25098BP  26075.70031250  .00000000  00000+0  00000-0 0  9997
2 10005  55.0000  12.0000 0000000   0.0000 102.0000 14.24551792    15
CTC1_L_00122002-03
1 10006U 26924VA  26075.70031250  .00000000  00000+0  00000-0 0  9997
2 10006  55.0000  12.0000 0000000   0.0000 192.0000 14.24551792    15
CTC1_L_00122002-04
1 10007U 23402DJ  26075.70031250  .00000000  00000+0  00000-0 0  9996
2 10007  55.0000  12.0000 0000000   0.0000 282.0000 14.24551792    16
CTC1_L_00122003-01
1 10008U 23002IE  26075.70031250  .00000000  00000+0  00000-0 0  9993
2 10008  55.0000  24.0000 0000000   0.0000  24.0000 14.24551792    14
CTC1_L_00122003-02
1 10009U 26982SK  26075.70031250  .00000000  00000+0  00000-0 0  9994
2 10009  55.0000  24.0000 0000000   0.0000 114.0000 14.24551792    15
CTC1_L_00122003-03
1 10010U 25779KU  26075.70031250  .00000000  00000+0  00000-0 0  9999
2 10010  55.0000  24.0000 0000000   0.0000 204.0000 14.24551792    17
CTC1_L_00122003-04
1 10011U 22862UC  26075.70031250  .00000000  00000+0  00000-0 0  9990
2 10011  55.0000  24.0000 0000000   0.0000 294.0000 14.24551792    17
CTC1_L_00122004-01
1 10012U 25651EU  26075.70031250  .00000000  00000+0  00000-0 0  9990
2 10012  55.0000  36.0000 0000000   0.0000  36.0000 14.24551792    15
CTC1_L_00122004-02
1 10013U 25802PC  26075.70031250  .00000000  00000+0  00000-0 0  9999
2 10013  55.0000  36.0000 0000000   0.0000 126.0000 14.24551792    16
CTC1_L_00122004-03
1 10014U 24309TL  26075.70031250  .00000000  00000+0  00000-0 0  9991
2 10014  55.0000  36.0000 0000000   0.0000 216.0000 14.24551792    17
CTC1_L_00122004-04
1 10015U 23590GV  26075.70031250  .00000000  00000+0  00000-0 0  9993
2 10015  55.0000  36.0000 0000000   0.0000 306.0000 14.24551792    18
CTC1_L_00122005-01
1 10016U 25298AP  26075.70031250  .00000000  00000+0  00000-0 0  9991
2 10016  55.0000  48.0000 0000000   0.0000  48.0000 14.24551792    15
CTC1_L_00122005-02
1 10017U 23375QG  26075.70031250  .00000000  00000+0  00000-0 0  9996
2 10017  55.0000  48.0000 0000000   0.0000 138.0000 14.24551792    16
CTC1_L_00122005-03
1 10018U 24942DB  26075.70031250  .00000000  00000+0  00000-0 0  9998
2 10018  55.0000  48.0000 0000000   0.0000 228.0000 14.24551792    17
CTC1_L_00122005-04
1 10019U 25109IE  26075.70031250  .00000000  00000+0  00000-0 0  9995
2 10019  55.0000  48.0000 0000000   0.0000 318.0000 14.24551792    18
CTC1_L_00122006-01
1 10020U 23895KU  26075.70031250  .00000000  00000+0  00000-0 0  9997
2 10020  55.0000  60.0000 0000000   0.0000  60.0000 14.24551792    18
CTC1_L_00122006-02
1 10021U 26307WJ  26075.70031250  .00000000  00000+0  00000-0 0  9999
2 10021  55.0000  60.0000 0000000   0.0000 150.0000 14.24551792    19
CTC1_L_00122006-03
1 10022U 26655AZ  26075.70031250  .00000000  00000+0  00000-0 0  9996
2 10022  55.0000  60.0000 0000000   0.0000 240.0000 14.24551792    10
CTC1_L_00122006-04
1 10023U 24506WF  26075.70031250  .00000000  00000+0  00000-0 0  9990
2 10023  55.0000  60.0000 0000000   0.0000 330.0000 14.24551792    11
CTC1_L_00122007-01
1 10024U 24382KP  26075.70031250  .00000000  00000+0  00000-0 0  9993
2 10024  55.0000  72.0000 0000000   0.0000  72.0000 14.24551792    18
CTC1_L_00122007-02
1 10025U 26235PF  26075.70031250  .00000000  00000+0  00000-0 0  9993
2 10025  55.0000  72.0000 0000000   0.0000 162.0000 14.24551792    19
CTC1_L_00122007-03
1 10026U 23464UP  26075.70031250  .00000000  00000+0  00000-0 0  9995
2 10026  55.0000  72.0000 0000000   0.0000 252.0000 14.24551792    10
CTC1_L_00122007-04
1 10027U 25692JI  26075.70031250  .00000000  00000+0  00000-0 0  9991
2 10027  55.0000  72.0000 0000000   0.0000 342.0000 14.24551792    11
CTC1_L_00122008-01
1 10028U 24542BU  26075.70031250  .00000000  00000+0  00000-0 0  9995
2 10028  55.0000  84.0000 0000000   0.0000  84.0000 14.24551792    18
CTC1_L_00122008-02
1 10029U 23131WS  26075.70031250  .00000000  00000+0  00000-0 0  9999
2 10029  55.0000  84.0000 0000000   0.0000 174.0000 14.24551792    19
CTC1_L_00122008-03
1 10030U 24024KD  26075.70031250  .00000000  00000+0  00000-0 0  9993
2 10030  55.0000  84.0000 0000000   0.0000 264.0000 14.24551792    11
CTC1_L_00122008-04
1 10031U 23038H   26075.70031250  .00000000  00000+0  00000-0 0  9998
2 10031  55.0000  84.0000 0000000   0.0000 354.0000 14.24551792    12
CTC1_L_00122009-01
1 10032U 26522FC  26075.70031250  .00000000  00000+0  00000-0 0  9990
2 10032  55.0000  96.0000 0000000   0.0000  96.0000 14.24551792    19
CTC1_L_00122009-02
1 10033U 23787WS  26075.70031250  .00000000  00000+0  00000-0 0  9991
2 10033  55.0000  96.0000 0000000   0.0000 186.0000 14.24551792    10
CTC1_L_00122009-03
1 10034U 22570LA  26075.70031250  .00000000  00000+0  00000-0 0  9991
2 10034  55.0000  96.0000 0000000   0.0000 276.0000 14.24551792    11
CTC1_L_00122009-04
1 10035U 24248WI  26075.70031250  .00000000  00000+0  00000-0 0  9996
2 10035  55.0000  96.0000 0000000   0.0000   6.0000 14.24551792    13
CTC1_L_00122010-01
1 10036U 24358DC  26075.70031250  .00000000  00000+0  00000-0 0  9999
2 10036  55.0000 108.0000 0000000   0.0000 108.0000 14.24551792    11
CTC1_L_00122010-02
1 10037U 22591FW  26075.70031250  .00000000  00000+0  00000-0 0  9997
2 10037  55.0000 108.0000 0000000   0.0000 198.0000 14.24551792    11
CTC1_L_00122010-03
1 10038U 25600JX  26075.70031250  .00000000  00000+0  00000-0 0  9992
2 10038  55.0000 108.0000 0000000   0.0000 288.0000 14.24551792    12
CTC1_L_00122010-04
1 10039U 22253EM  26075.70031250  .00000000  00000+0  00000-0 0  9994
2 10039  55.0000 108.0000 0000000   0.0000  18.0000 14.24551792    14
CTC1_L_00122011-01
1 10040U 24891FZ  26075.70031250  .00000000  00000+0  00000-0 0  9996
2 10040  55.0000 120.0000 0000000   0.0000 120.0000 14.24551792    14
CTC1_L_00122011-02
1 10041U 22739AY  26075.70031250  .00000000  00000+0  00000-0 0  9996
2 10041  55.0000 120.0000 0000000   0.0000 210.0000 14.24551792    15
CTC1_L_00122011-03
1 10042U 23618BW  26075.70031250  .00000000  00000+0  00000-0 0  9994
2 10042  55.0000 120.0000 0000000   0.0000 300.0000 14.24551792    16
CTC1_L_00122011-04
1 10043U 22486NZ  26075.70031250  .00000000  00000+0  00000-0 0  9997
2 10043  55.0000 120.0000 0000000   0.0000  30.0000 14.24551792    17
CTC1_L_00122012-01
1 10044U 26320ZI  26075.70031250  .00000000  00000+0  00000-0 0  9999
2 10044  55.0000 132.0000 0000000   0.0000 132.0000 14.24551792    14
CTC1_L_00122012-02
1 10045U 22693O   26075.70031250  .00000000  00000+0  00000-0 0  9999
2 10045  55.0000 132.0000 0000000   0.0000 222.0000 14.24551792    15
CTC1_L_00122012-03
1 10046U 26063TJ  26075.70031250  .00000000  00000+0  00000-0 0  9995
2 10046  55.0000 132.0000 0000000   0.0000 312.0000 14.24551792    16
CTC1_L_00122012-04
1 10047U 23605MJ  26075.70031250  .00000000  00000+0  00000-0 0  9995
2 10047  55.0000 132.0000 0000000   0.0000  42.0000 14.24551792    17
CTC1_L_00122013-01
1 10048U 26419ZZ  26075.70031250  .00000000  00000+0  00000-0 0  9992
2 10048  55.0000 144.0000 0000000   0.0000 144.0000 14.24551792    14
CTC1_L_00122013-02
1 10049U 26634KA  26075.70031250  .00000000  00000+0  00000-0 0  9992
2 10049  55.0000 144.0000 0000000   0.0000 234.0000 14.24551792    15
CTC1_L_00122013-03
1 10050U 25419QK  26075.70031250  .00000000  00000+0  00000-0 0  9994
2 10050  55.0000 144.0000 0000000   0.0000 324.0000 14.24551792    17
CTC1_L_00122013-04
1 10051U 25399AM  26075.70031250  .00000000  00000+0  00000-0 0  9992
2 10051  55.0000 144.0000 0000000   0.0000  54.0000 14.24551792    18
CTC1_L_00122014-01
1 10052U 22034NE  26075.70031250  .00000000  00000+0  00000-0 0  9996
2 10052  55.0000 156.0000 0000000   0.0000 156.0000 14.24551792    15
CTC1_L_00122014-02
1 10053U 23741OQ  26075.70031250  .00000000  00000+0  00000-0 0  9993
2 10053  55.0000 156.0000 0000000   0.0000 246.0000 14.24551792    16
CTC1_L_00122014-03
1 10054U 22552FM  26075.70031250  .00000000  00000+0  00000-0 0  9993
2 10054  55.0000 156.0000 0000000   0.0000 336.0000 14.24551792    17
CTC1_L_00122014-04
1 10055U 22675PD  26075.70031250  .00000000  00000+0  00000-0 0  9990
2 10055  55.0000 156.0000 0000000   0.0000  66.0000 14.24551792    18
CTC1_L_00122015-01
1 10056U 22492MV  26075.70031250  .00000000  00000+0  00000-0 0  9998
2 10056  55.0000 168.0000 0000000   0.0000 168.0000 14.24551792    15
CTC1_L_00122015-02
1 10057U 25378SA  26075.70031250  .00000000  00000+0  00000-0 0  9995
2 10057  55.0000 168.0000 0000000   0.0000 258.0000 14.24551792    16
CTC1_L_00122015-03
1 10058U 25830QR  26075.70031250  .00000000  00000+0  00000-0 0  9999
2 10058  55.0000 168.0000 0000000   0.0000 348.0000 14.24551792    17
CTC1_L_00122015-04
1 10059U 22526ZY  26075.70031250  .00000000  00000+0  00000-0 0  9999
2 10059  55.0000 168.0000 0000000   0.0000  78.0000 14.24551792    18
CTC1_L_00122016-01
1 10060U 26388VY  26075.70031250  .00000000  00000+0  00000-0 0  9991
2 10060  55.0000 180.0000 0000000   0.0000 180.0000 14.24551792    18
CTC1_L_00122016-02
1 10061U 24868IP  26075.70031250  .00000000  00000+0  00000-0 0  9993
2 10061  55.0000 180.0000 0000000   0.0000 270.0000 14.24551792    19
